[{"OBJECT_NAME":"SKYSAT-A","OBJECT_ID":"2013-066C","EPOCH":"2026-02-01T15:19:58.571904","MEAN_MOTION":15.12064337,"ECCENTRICITY":0.0023199,"INCLINATION":97.4026,"RA_OF_ASC_NODE":86.2941,"ARG_OF_PERICENTER":64.9237,"MEAN_ANOMALY":295.4398,"EPHEMERIS_TYPE":0,"CLASSIFICATION_TYPE":"U","NORAD_CAT_ID":39418,"ELEMENT_SET_NO":999,"REV_AT_EPOCH":66799,"BSTAR":0.00019548312,"MEAN_MOTION_DOT":3.319e-5,"MEAN_MOTION_DDOT":0},{"OBJECT_NAME":"SKYSAT-B","OBJECT_ID":"2014-037D","EPOCH":"2026-02-01T19:29:35.331936","MEAN_MOTION":14.8756859,"ECCENTRICITY":0.00058635,"INCLINATION":98.3675,"RA_OF_ASC_NODE":344.2414,"ARG_OF_PERICENTER":11.9673,"MEAN_ANOMALY":348.168,"EPHEMERIS_TYPE":0,"CLASSIFICATION_TYPE":"U","NORAD_CAT_ID":40072,"ELEMENT_SET_NO":999,"REV_AT_EPOCH":62583,"BSTAR":0.00022986779,"MEAN_MOTION_DOT":2.027e-5,"MEAN_MOTION_DDOT":0},{"OBJECT_NAME":"SKYSAT-C1","OBJECT_ID":"2016-040C","EPOCH":"2026-02-01T19:49:45.122880","MEAN_MOTION":15.33735138,"ECCENTRICITY":0.00038712,"INCLINATION":96.9756,"RA_OF_ASC_NODE":71.9775,"ARG_OF_PERICENTER":124.2817,"MEAN_ANOMALY":235.8794,"EPHEMERIS_TYPE":0,"CLASSIFICATION_TYPE":"U","NORAD_CAT_ID":41601,"ELEMENT_SET_NO":999,"REV_AT_EPOCH":53710,"BSTAR":0.0002611281,"MEAN_MOTION_DOT":8.448e-5,"MEAN_MOTION_DDOT":0},{"OBJECT_NAME":"SKYSAT-C4","OBJECT_ID":"2016-058B","EPOCH":"2026-02-01T23:04:56.696448","MEAN_MOTION":15.44073135,"ECCENTRICITY":0.0003127,"INCLINATION":96.9322,"RA_OF_ASC_NODE":60.7045,"ARG_OF_PERICENTER":70.2546,"MEAN_ANOMALY":289.904,"EPHEMERIS_TYPE":0,"CLASSIFICATION_TYPE":"U","NORAD_CAT_ID":41771,"ELEMENT_SET_NO":999,"REV_AT_EPOCH":52457,"BSTAR":0.00031647308,"MEAN_MOTION_DOT":0.00014389,"MEAN_MOTION_DDOT":0},{"OBJECT_NAME":"SKYSAT-C5","OBJECT_ID":"2016-058C","EPOCH":"2026-02-01T16:32:17.649888","MEAN_MOTION":15.3442267,"ECCENTRICITY":0.00058576,"INCLINATION":97.0684,"RA_OF_ASC_NODE":79.3006,"ARG_OF_PERICENTER":118.1635,"MEAN_ANOMALY":242.0202,"EPHEMERIS_TYPE":0,"CLASSIFICATION_TYPE":"U","NORAD_CAT_ID":41772,"ELEMENT_SET_NO":999,"REV_AT_EPOCH":52297,"BSTAR":0.00026123533,"MEAN_MOTION_DOT":8.639e-5,"MEAN_MOTION_DDOT":0},{"OBJECT_NAME":"SKYSAT-C2","OBJECT_ID":"2016-058D","EPOCH":"2026-02-01T19:43:26.427360","MEAN_MOTION":15.38697679,"ECCENTRICITY":0.00039658,"INCLINATION":97.0313,"RA_OF_ASC_NODE":60.2174,"ARG_OF_PERICENTER":150.6905,"MEAN_ANOMALY":209.4565,"EPHEMERIS_TYPE":0,"CLASSIFICATION_TYPE":"U","NORAD_CAT_ID":41773,"ELEMENT_SET_NO":999,"REV_AT_EPOCH":52421,"BSTAR":0.00029206008,"MEAN_MOTION_DOT":0.00011096,"MEAN_MOTION_DDOT":0},{"OBJECT_NAME":"SKYSAT-C3","OBJECT_ID":"2016-058E","EPOCH":"2026-02-01T19:10:05.982240","MEAN_MOTION":15.46661714,"ECCENTRICITY":0.00021961,"INCLINATION":96.9228,"RA_OF_ASC_NODE":69.2227,"ARG_OF_PERICENTER":81.058,"MEAN_ANOMALY":279.0919,"EPHEMERIS_TYPE":0,"CLASSIFICATION_TYPE":"U","NORAD_CAT_ID":41774,"ELEMENT_SET_NO":999,"REV_AT_EPOCH":52514,"BSTAR":0.00036324908,"MEAN_MOTION_DOT":0.0001806,"MEAN_MOTION_DDOT":0},{"OBJECT_NAME":"SKYSAT-C11","OBJECT_ID":"2017-068A","EPOCH":"2026-02-01T21:58:59.640384","MEAN_MOTION":15.50211734,"ECCENTRICITY":7.084e-5,"INCLINATION":97.4171,"RA_OF_ASC_NODE":176.7846,"ARG_OF_PERICENTER":80.0901,"MEAN_ANOMALY":280.0431,"EPHEMERIS_TYPE":0,"CLASSIFICATION_TYPE":"U","NORAD_CAT_ID":42987,"ELEMENT_SET_NO":999,"REV_AT_EPOCH":46223,"BSTAR":0.00040598833,"MEAN_MOTION_DOT":0.0002286,"MEAN_MOTION_DDOT":0},{"OBJECT_NAME":"SKYSAT-C10","OBJECT_ID":"2017-068B","EPOCH":"2026-02-01T21:07:47.739360","MEAN_MOTION":15.3191563,"ECCENTRICITY":0.00019575,"INCLINATION":97.4287,"RA_OF_ASC_NODE":168.8561,"ARG_OF_PERICENTER":97.7254,"MEAN_ANOMALY":262.421,"EPHEMERIS_TYPE":0,"CLASSIFICATION_TYPE":"U","NORAD_CAT_ID":42988,"ELEMENT_SET_NO":999,"REV_AT_EPOCH":46162,"BSTAR":0.00033977261,"MEAN_MOTION_DOT":0.00010396,"MEAN_MOTION_DDOT":0},{"OBJECT_NAME":"SKYSAT-C9","OBJECT_ID":"2017-068C","EPOCH":"2026-02-01T22:26:46.704192","MEAN_MOTION":15.37667406,"ECCENTRICITY":0.00082576,"INCLINATION":97.4213,"RA_OF_ASC_NODE":168.6587,"ARG_OF_PERICENTER":263.0401,"MEAN_ANOMALY":96.9904,"EPHEMERIS_TYPE":0,"CLASSIFICATION_TYPE":"U","NORAD_CAT_ID":42989,"ELEMENT_SET_NO":999,"REV_AT_EPOCH":46194,"BSTAR":0.0003734859,"MEAN_MOTION_DOT":0.00013752,"MEAN_MOTION_DDOT":0},{"OBJECT_NAME":"SKYSAT-C8","OBJECT_ID":"2017-068D","EPOCH":"2026-02-01T22:01:03.286560","MEAN_MOTION":15.34350649,"ECCENTRICITY":0.00028513,"INCLINATION":97.4309,"RA_OF_ASC_NODE":168.1997,"ARG_OF_PERICENTER":120.8743,"MEAN_ANOMALY":239.2781,"EPHEMERIS_TYPE":0,"CLASSIFICATION_TYPE":"U","NORAD_CAT_ID":42990,"ELEMENT_SET_NO":999,"REV_AT_EPOCH":46155,"BSTAR":0.00036189871,"MEAN_MOTION_DOT":0.00011964,"MEAN_MOTION_DDOT":0},{"OBJECT_NAME":"SKYSAT-C7","OBJECT_ID":"2017-068E","EPOCH":"2026-02-01T21:34:38.847072","MEAN_MOTION":15.33703322,"ECCENTRICITY":0.00057283,"INCLINATION":97.4319,"RA_OF_ASC_NODE":169.1794,"ARG_OF_PERICENTER":222.5649,"MEAN_ANOMALY":137.515,"EPHEMERIS_TYPE":0,"CLASSIFICATION_TYPE":"U","NORAD_CAT_ID":42991,"ELEMENT_SET_NO":999,"REV_AT_EPOCH":46161,"BSTAR":0.00035356309,"MEAN_MOTION_DOT":0.00011452,"MEAN_MOTION_DDOT":0},{"OBJECT_NAME":"SKYSAT-C6","OBJECT_ID":"2017-068F","EPOCH":"2026-02-01T22:01:48.334656","MEAN_MOTION":15.32067986,"ECCENTRICITY":0.00015874,"INCLINATION":97.4349,"RA_OF_ASC_NODE":169.5666,"ARG_OF_PERICENTER":186.7441,"MEAN_ANOMALY":173.3779,"EPHEMERIS_TYPE":0,"CLASSIFICATION_TYPE":"U","NORAD_CAT_ID":42992,"ELEMENT_SET_NO":999,"REV_AT_EPOCH":46159,"BSTAR":0.00035721016,"MEAN_MOTION_DOT":0.00010986,"MEAN_MOTION_DDOT":0},{"OBJECT_NAME":"SKYSAT-C12","OBJECT_ID":"2018-099AR","EPOCH":"2026-02-01T14:47:27.243456","MEAN_MOTION":15.44252785,"ECCENTRICITY":0.00023906,"INCLINATION":96.9417,"RA_OF_ASC_NODE":61.6257,"ARG_OF_PERICENTER":306.0636,"MEAN_ANOMALY":54.0392,"EPHEMERIS_TYPE":0,"CLASSIFICATION_TYPE":"U","NORAD_CAT_ID":43797,"ELEMENT_SET_NO":999,"REV_AT_EPOCH":40090,"BSTAR":0.00033439249,"MEAN_MOTION_DOT":0.00015301,"MEAN_MOTION_DDOT":0},{"OBJECT_NAME":"SKYSAT-C13","OBJECT_ID":"2018-099AW","EPOCH":"2026-02-01T22:16:11.511264","MEAN_MOTION":15.70956095,"ECCENTRICITY":0.00045235,"INCLINATION":96.9494,"RA_OF_ASC_NODE":80.6229,"ARG_OF_PERICENTER":25.1892,"MEAN_ANOMALY":334.9591,"EPHEMERIS_TYPE":0,"CLASSIFICATION_TYPE":"U","NORAD_CAT_ID":43802,"ELEMENT_SET_NO":999,"REV_AT_EPOCH":40154,"BSTAR":0.00047088572,"MEAN_MOTION_DOT":0.00059002,"MEAN_MOTION_DDOT":0},{"OBJECT_NAME":"FLOCK 4Q-16","OBJECT_ID":"2023-174R","EPOCH":"2026-02-01T18:45:54.662688","MEAN_MOTION":15.42897337,"ECCENTRICITY":0.00062841,"INCLINATION":97.3929,"RA_OF_ASC_NODE":118.3495,"ARG_OF_PERICENTER":290.7629,"MEAN_ANOMALY":69.2945,"EPHEMERIS_TYPE":0,"CLASSIFICATION_TYPE":"U","NORAD_CAT_ID":58271,"ELEMENT_SET_NO":999,"REV_AT_EPOCH":12465,"BSTAR":0.00045399235,"MEAN_MOTION_DOT":0.0001989,"MEAN_MOTION_DDOT":0}]
