SKYSAT-A                
1 39418U 13066C   26032.63887236  .00003319  00000+0  19548-3 0  9992
2 39418  97.4026  86.2941 0023199  64.9237 295.4398 15.12064337667999
SKYSAT-B                
1 40072U 14037D   26032.81221449  .00002027  00000+0  22987-3 0  9993
2 40072  98.3675 344.2414 0005863  11.9673 348.1680 14.87568590625831
SKYSAT-C1               
1 41601U 16040C   26032.82621670  .00008448  00000+0  26113-3 0  9997
2 41601  96.9756  71.9775 0003871 124.2817 235.8794 15.33735138537109
SKYSAT-C4               
1 41771U 16058B   26032.96176732  .00014389  00000+0  31647-3 0  9992
2 41771  96.9322  60.7045 0003127  70.2546 289.9040 15.44073135524570
SKYSAT-C5               
1 41772U 16058C   26032.68909317  .00008639  00000+0  26124-3 0  9990
2 41772  97.0684  79.3006 0005857 118.1635 242.0202 15.34422670522973
SKYSAT-C2               
1 41773U 16058D   26032.82183365  .00011096  00000+0  29206-3 0  9999
2 41773  97.0313  60.2174 0003965 150.6905 209.4565 15.38697679524212
SKYSAT-C3               
1 41774U 16058E   26032.79868035  .00018060  00000+0  36325-3 0  9998
2 41774  96.9228  69.2227 0002196  81.0580 279.0919 15.46661714525144
SKYSAT-C11              
1 42987U 17068A   26032.91596806  .00022860  00000+0  40599-3 0  9996
2 42987  97.4171 176.7846 0000708  80.0901 280.0431 15.50211734462237
SKYSAT-C10              
1 42988U 17068B   26032.88041365  .00010396  00000+0  33977-3 0  9991
2 42988  97.4287 168.8561 0001957  97.7254 262.4210 15.31915630461621
SKYSAT-C9               
1 42989U 17068C   26032.93526278  .00013752  00000+0  37349-3 0  9995
2 42989  97.4213 168.6587 0008257 263.0401  96.9904 15.37667406461945
SKYSAT-C8               
1 42990U 17068D   26032.91739915  .00011964  00000+0  36190-3 0  9995
2 42990  97.4309 168.1997 0002851 120.8743 239.2781 15.34350649461553
SKYSAT-C7               
1 42991U 17068E   26032.89906073  .00011452  00000+0  35356-3 0  9999
2 42991  97.4319 169.1794 0005728 222.5649 137.5150 15.33703322461618
SKYSAT-C6               
1 42992U 17068F   26032.91792054  .00010986  00000+0  35721-3 0  9992
2 42992  97.4349 169.5666 0001587 186.7441 173.3779 15.32067986461594
SKYSAT-C12              
1 43797U 18099AR  26032.61628754  .00015301  00000+0  33439-3 0  9993
2 43797  96.9417  61.6257 0002390 306.0636  54.0392 15.44252785400902
SKYSAT-C13              
1 43802U 18099AW  26032.92791101  .00059002  00000+0  47089-3 0  9993
2 43802  96.9494  80.6229 0004523  25.1892 334.9591 15.70956095401543
FLOCK 4Q-16             
1 58271U 23174R   26032.78188267  .00019890  00000+0  45399-3 0  9999
2 58271  97.3929 118.3495 0006284 290.7629  69.2945 15.42897337124652
